HST                     
1 20580U 90037B   26129.28095211  .00005882  00000+0  18713-3 0  9997
2 20580  28.4761 346.3880 0002181  70.8107 289.2725 15.30334281782600
